NORAD_CAT_ID,OBJECT_NAME,OBJECT_TYPE,EPOCH,MEAN_MOTION,ECCENTRICITY,INCLINATION,RA_OF_ASC_NODE,ARG_OF_PERICENTER,MEAN_ANOMALY,BSTAR,MEAN_MOTION_DOT,MEAN_MOTION_DDOT,TLE_LINE0,TLE_LINE1,TLE_LINE2,SEMIMAJOR_AXIS,PERIOD,APOGEE,PERIGEE,DECAYED
49180.0,STARLINK-3050,PAYLOAD,2021-12-25 22:00:00,15.69719504,0.0003455,70.0004,197.8333,272.723,204.7106,0.0004415,0.0005276,0.0,0 STARLINK-3050,1 49180U 21082BC  21359.91667824  .00052760  00000-0  44150-3 0  9995,2 49180  70.0004 197.8333 0003455 272.7230 204.7106 15.69719504  3683,6737.837,91.736,362.029,357.374,0.0
49180.0,STARLINK-3050,PAYLOAD,2021-12-26 14:00:01,15.69736962,0.0003298,70.0004,195.9593,265.687,17.9833,0.00016592,0.00019631,0.0,0 STARLINK-3050,1 49180U 21082BC  21360.58334491  .00019631  00000-0  16592-3 0  9990,2 49180  70.0004 195.9593 0003298 265.6870  17.9833 15.69736962 17511,6737.7869999999975,91.735,361.874,357.42900000000014,0.0
49180.0,STARLINK-3050,PAYLOAD,2021-12-26 22:00:00,15.69723761,0.0003256999999999,70.0003,195.0224,273.5906,93.1928,0.00046617,0.00055748,0.0,0 STARLINK-3050,1 49180U 21082BC  21360.91667824  .00055748  00000-0  46617-3 0  9996,2 49180  70.0003 195.0224 0003257 273.5906  93.1928 15.69723761  3682,6737.824000000001,91.736,361.884,357.495,0.0
49180.0,STARLINK-3050,PAYLOAD,2021-12-27 06:00:00,15.69757212,0.0003387,70.0002,194.0855,270.3617,179.5424,-0.00064983,-0.00077104,0.0,0 STARLINK-3050,1 49180U 21082BC  21361.25001157 -.00077104  00000-0 -64983-3 0  9993,2 49180  70.0002 194.0855 0003387 270.3617 179.5424 15.69757212 17614,6737.729,91.734,361.876,357.31199999999984,0.0
49180.0,STARLINK-3050,PAYLOAD,2021-12-27 14:00:01,15.69728404,0.0003475,70.0008,193.1487,266.9577,266.0385,0.00018268,0.00021633,0.0,0 STARLINK-3050,1 49180U 21082BC  21361.58334491  .00021633  00000-0  18268-3 0  9998,2 49180  70.0008 193.1487 0003475 266.9577 266.0385 15.69728404 17669,6737.811,91.736,362.017,357.335,0.0
49180.0,STARLINK-3050,PAYLOAD,2021-12-27 22:00:00,15.69722129,0.0003521,70.0007,192.2118,274.0568,342.0574,0.00049295,0.00058984,0.0,0 STARLINK-3050,1 49180U 21082BC  21361.91667824  .00058984  00000-0  49295-3 0  9997,2 49180  70.0007 192.2118 0003521 274.0568 342.0574 15.69722129  3670,6737.829000000002,91.736,362.066,357.32199999999995,0.0
49180.0,STARLINK-3050,PAYLOAD,2021-12-28 14:00:01,15.69795187,0.0003413999999999,70.0003,190.3379,267.8037,154.5946,-0.00052672,-0.00062742,0.0,0 STARLINK-3050,1 49180U 21082BC  21362.58334491 -.00062742  00000-0 -52672-3 0  9994,2 49180  70.0003 190.3379 0003414 267.8037 154.5946 15.69795187  3703,6737.62,91.732,361.785,357.185,0.0
49180.0,STARLINK-3050,PAYLOAD,2021-12-28 22:00:00,15.69753211,0.0003384,70.0001,189.4011,275.0768,230.4758,-0.00019071,-0.0002292,0.0,0 STARLINK-3050,1 49180U 21082BC  21362.91667824 -.00022920  00000-0 -19071-3 0  9990,2 49180  70.0001 189.4011 0003384 275.0768 230.4758 15.69753211 17871,6737.74,91.734,361.885,357.325,0.0
49180.0,STARLINK-3050,PAYLOAD,2021-12-29 14:00:01,15.69773846,0.0003496,70.0003,187.5272,268.8675,42.9548,-0.00034216,-0.00040902,0.0,0 STARLINK-3050,1 49180U 21082BC  21363.58335648 -.00040902  00000-0 -34216-3 0  9998,2 49180  70.0003 187.5272 0003496 268.8675  42.9548 15.69773846  3708,6737.681,91.733,361.902,357.191,0.0
49180.0,STARLINK-3050,PAYLOAD,2021-12-29 21:51:08,15.69754802,0.0003518,70.0,186.6076,270.2458,89.8334,0.00024921,0.0002965,0.0,0 STARLINK-3050,1 49180U 21082BC  21363.91051555  .00029650  00000-0  24921-3 0  9994,2 49180  70.0000 186.6076 0003518 270.2458  89.8334 15.69754802 18034,6737.736,91.734,361.971,357.23,0.0
49180.0,STARLINK-3050,PAYLOAD,2021-12-29 22:00:00,15.69698199,0.0003336,70.0001,186.5902,275.3466,119.5578,0.00022132,0.00026235,0.0,0 STARLINK-3050,1 49180U 21082BC  21363.91667824  .00026235  00000-0  22132-3 0  9994,2 49180  70.0001 186.5902 0003336 275.3466 119.5578 15.69698199 18032,6737.898,91.737,362.01,357.515,0.0
49180.0,STARLINK-3050,PAYLOAD,2021-12-30 14:40:32,15.69731084,0.0003298,70.0019,184.6404,275.721,84.3609,-8.079500000000001e-06,-1.176e-05,0.0,0 STARLINK-3050,1 49180U 21082BC  21364.61149170 -.00001176  00000-0 -80795-5 0  9991,2 49180  70.0019 184.6404 0003298 275.7210  84.3609 15.69731084 18142,6737.803000000001,91.735,361.891,357.446,0.0
49180.0,STARLINK-3050,PAYLOAD,2021-12-30 22:00:01,15.69727622,0.0003285,69.9993,183.7797,277.1832,7.0735,0.00059323,0.00071143,0.0,0 STARLINK-3050,1 49180U 21082BC  21364.91668981  .00071143  00000-0  59323-3 0  9990,2 49180  69.9993 183.7797 0003285 277.1832   7.0735 15.69727622 18197,6737.813,91.736,361.892,357.465,0.0
49180.0,STARLINK-3050,PAYLOAD,2021-12-30 22:19:21,15.69741803,0.0003013999999999,70.0,183.7422,268.7769,91.3081,8.8643e-05,0.00010379,0.0,0 STARLINK-3050,1 49180U 21082BC  21364.93011293  .00010379  00000-0  88643-4 0  9992,2 49180  70.0000 183.7422 0003014 268.7769  91.3081 15.69741803 18196,6737.773,91.735,361.669,357.607,0.0
49180.0,STARLINK-3050,PAYLOAD,2021-12-31 06:00:00,15.69775363,0.000335,69.9991,182.8426,272.2112,95.1114,-0.00026885,-0.00032218,0.0,0 STARLINK-3050,1 49180U 21082BC  21365.25001157 -.00032218  00000-0 -26885-3 0  9993,2 49180  69.9991 182.8426 0003350 272.2112  95.1114 15.69775363 18244,6737.677,91.733,361.799,357.285,0.0
49180.0,STARLINK-3050,PAYLOAD,2021-12-31 13:36:58,15.69774708,0.000327,69.9996,181.9509,272.1469,87.9352,0.00018538,0.00021999,0.0,0 STARLINK-3050,1 49180U 21082BC  21365.56734555  .00021999  00000-0  18538-3 0  9990,2 49180  69.9996 181.9509 0003270 272.1469  87.9352 15.69774708 18296,6737.679,91.733,361.747,357.34,0.0
49180.0,STARLINK-3050,PAYLOAD,2021-12-31 21:15:47,15.69746095,0.0002747,70.0001,181.0553,281.1443,78.9444,4.870100000000002e-05,5.604e-05,0.0,0 STARLINK-3050,1 49180U 21082BC  21365.88597060  .00005604  00000-0  48701-4 0  9994,2 49180  70.0001 181.0553 0002747 281.1443  78.9444 15.69746095 18342,6737.76,91.735,361.476,357.775,0.0
49180.0,STARLINK-3050,PAYLOAD,2022-01-01 14:05:10,15.69768302,0.0003452,69.9994,179.0846,265.015,95.0652,0.00022247,0.0002645,0.0,0 STARLINK-3050,1 49180U 21082BC  22001.58692773  .00026450  00000-0  22247-3 0  9994,2 49180  69.9994 179.0846 0003452 265.0150  95.0652 15.69768302 18450,6737.696999999999,91.733,361.888,357.236,0.0
49180.0,STARLINK-3050,PAYLOAD,2022-01-01 22:00:00,15.697731900000004,0.0003425,69.9988,178.1579,278.3035,144.6974,-0.00025727,-0.00030842,0.0,0 STARLINK-3050,1 49180U 21082BC  22001.91667824 -.00030842  00000-0 -25727-3 0  9998,2 49180  69.9988 178.1579 0003425 278.3035 144.6974 15.69773190  3683,6737.683000000001,91.733,361.856,357.24,0.0
49180.0,STARLINK-3050,PAYLOAD,2022-01-02 06:00:00,15.69722655,0.000332,69.9988,177.2208,273.5984,232.5547,0.00044352,0.0005301,0.0,0 STARLINK-3050,1 49180U 21082BC  22002.25001157  .00053010  00000-0  44352-3 0  9992,2 49180  69.9988 177.2208 0003320 273.5984 232.5547 15.69722655 18551,6737.828,91.736,361.929,357.456,0.0
49180.0,STARLINK-3050,PAYLOAD,2022-01-02 14:00:01,15.69798632,0.0003409,69.9993,176.2839,271.8503,317.4012,-0.00055976,-0.00066643,0.0,0 STARLINK-3050,1 49180U 21082BC  22002.58334491 -.00066643  00000-0 -55976-3 0  9990,2 49180  69.9993 176.2839 0003409 271.8503 317.4012 15.69798632  3655,6737.61,91.732,361.772,357.17800000000005,0.0
49180.0,STARLINK-3050,PAYLOAD,2022-01-02 22:00:00,15.6971534,0.0003532,69.9993,175.3469,278.5428,33.8776,0.00025766,0.00030616,0.0,0 STARLINK-3050,1 49180U 21082BC  22002.91667824  .00030616  00000-0  25766-3 0  9999,2 49180  69.9993 175.3469 0003532 278.5428  33.8776 15.69715340  3696,6737.848000000001,91.736,362.093,357.334,0.0
49180.0,STARLINK-3050,PAYLOAD,2022-01-03 14:00:01,15.69776061,0.0003551,69.9995,173.4734,273.5077,205.1134,-0.0002189,-0.00026292,0.0,0 STARLINK-3050,1 49180U 21082BC  22003.58334491 -.00026292  00000-0 -21890-3 0  9995,2 49180  69.9995 173.4734 0003551 273.5077 205.1134 15.69776061  3686,6737.675,91.733,361.932,357.147,0.0
49180.0,STARLINK-3050,PAYLOAD,2022-01-03 22:00:00,15.69758757,0.0003538,69.9992,172.5363,279.4112,282.3608,0.00022856,0.00027172,0.0,0 STARLINK-3050,1 49180U 21082BC  22003.91667824  .00027172  00000-0  22856-3 0  9990,2 49180  69.9992 172.5363 0003538 279.4112 282.3608 15.69758757  3686,6737.724,91.734,361.973,357.205,0.0
49180.0,STARLINK-3050,PAYLOAD,2022-01-04 14:00:01,15.69763736,0.0003362,69.9998,170.6624,274.5581,93.4698,-0.00020787,-0.00024968,0.0,0 STARLINK-3050,1 49180U 21082BC  22004.58334491 -.00024968  00000-0 -20787-3 0  9998,2 49180  69.9998 170.6624 0003362 274.5581  93.4698 15.69763736  3685,6737.71,91.734,361.84,357.31,0.0
49180.0,STARLINK-3050,PAYLOAD,2022-01-04 20:05:02,15.69736341,0.0002196,70.0022,169.953,250.923,109.1728,-2.5896e-05,-3.299e-05,0.0,0 STARLINK-3050,1 49180U 21082BC  22004.83683801 -.00003299  00000-0 -25896-4 0  9999,2 49180  70.0022 169.9530 0002196 250.9230 109.1728 15.69736341 18964,6737.788000000001,91.735,361.133,358.1740000000001,0.0
49180.0,STARLINK-3050,PAYLOAD,2022-01-05 14:00:01,15.69741446,0.0003566,70.0003,167.852,275.3636,342.0411,-0.00026352,-0.00031543,0.0,0 STARLINK-3050,1 49180U 21082BC  22005.58334491 -.00031543  00000-0 -26352-3 0  9990,2 49180  70.0003 167.8520 0003566 275.3636 342.0411 15.69741446 19085,6737.774,91.735,362.041,357.236,0.0
49180.0,STARLINK-3050,PAYLOAD,2022-01-05 22:00:00,15.69713506,0.000364,69.9998,166.9151,281.2769,59.2308,0.00036604,0.00043649,0.0,0 STARLINK-3050,1 49180U 21082BC  22005.91667824  .00043649  00000-0  36604-3 0  9995,2 49180  69.9998 166.9151 0003640 281.2769  59.2308 15.69713506  3688,6737.854,91.736,362.171,357.266,0.0
49180.0,STARLINK-3050,PAYLOAD,2022-01-06 06:00:00,15.69696242,0.0003594,69.9999,165.9781,274.6364,148.9811,0.00064552,0.00077395,0.0,0 STARLINK-3050,1 49180U 21082BC  22006.25001157  .00077395  00000-0  64552-3 0  9992,2 49180  69.9999 165.9781 0003594 274.6364 148.9811 15.69696242 19186,6737.903,91.737,362.19,357.347,0.0
